{"version": 0.6, "generator": "Overpass API 0.7.62.8 e802775f", "osm3s": {"timestamp_osm_base": "2025-12-26T07:05:57Z", "copyright": "The data included in this document is from www.openstreetmap.org. The data is made available under ODbL."}, "elements": [{"type": "node", "id": 314092543, "lat": 42.3264573, "lon": -71.0648216, "tags": {"addr:city": "Dorchester", "addr:housenumber": "1100", "addr:postcode": "02125", "addr:state": "MA", "addr:street": "Massachusetts Avenue", "brand": "Stop & Shop", "brand:wikidata": "Q3658429", "check_date": "2024-10-03", "check_date:opening_hours": "2024-10-03", "name": "Stop & Shop", "note": "store new since 2006 aerial imagery", "opening_hours": "Mo-Su 07:00-22:00", "phone": "+1 617-541-4700", "ref": "0429", "shop": "supermarket", "website": "https://stores.stopandshop.com/ma/dorchester/1100-massachusetts-avenue"}}, {"type": "node", "id": 326153053, "lat": 42.3214805, "lon": -71.110574}, {"type": "node", "id": 326157884, "lat": 42.3215371, "lon": -71.110721}, {"type": "node", "id": 326171063, "lat": 42.3214647, "lon": -71.1107028}, {"type": "node", "id": 326185216, "lat": 42.32139, "lon": -71.110684}, {"type": "node", "id": 326198824, "lat": 42.3216368, "lon": -71.1111891}, {"type": "node", "id": 326219339, "lat": 42.3214291, "lon": -71.11061}, {"type": "node", "id": 326223296, "lat": 42.3213306, "lon": -71.1111121}, {"type": "node", "id": 326230926, "lat": 42.3216961, "lon": -71.110761}, {"type": "node", "id": 326392243, "lat": 42.3516854, "lon": -71.0476428}, {"type": "node", "id": 326392245, "lat": 42.3520505, "lon": -71.0473523}, {"type": "node", "id": 326392246, "lat": 42.3519163, "lon": -71.0470413}, {"type": "node", "id": 326392247, "lat": 42.3515453, "lon": -71.047333}, {"type": "node", "id": 326406053, "lat": 42.3763308, "lon": -71.0408162}, {"type": "node", "id": 326406054, "lat": 42.3764997, "lon": -71.0408312}, {"type": "node", "id": 326406055, "lat": 42.376498, "lon": -71.0408971}, {"type": "node", "id": 326406056, "lat": 42.3765355, "lon": -71.0409002}, {"type": "node", "id": 326406057, "lat": 42.3765379, "lon": -71.0408348}, {"type": "node", "id": 326406058, "lat": 42.3766914, "lon": -71.0408426}, {"type": "node", "id": 326406059, "lat": 42.3767361, "lon": -71.0409679}, {"type": "node", "id": 326406061, "lat": 42.3768332, "lon": -71.0409024}, {"type": "node", "id": 326406062, "lat": 42.3768676, "lon": -71.0409924}, {"type": "node", "id": 326406063, "lat": 42.3769019, "lon": -71.0409645}, {"type": "node", "id": 326406064, "lat": 42.3769307, "lon": -71.0399707}, {"type": "node", "id": 326406065, "lat": 42.3763594, "lon": -71.0399245}, {"type": "node", "id": 326592193, "lat": 42.3522475, "lon": -71.1232432}, {"type": "node", "id": 326592196, "lat": 42.3522927, "lon": -71.1236256}, {"type": "node", "id": 326592198, "lat": 42.3523328, "lon": -71.123617}, {"type": "node", "id": 326592200, "lat": 42.3523836, "lon": -71.1240467}, {"type": "node", "id": 326592202, "lat": 42.3531577, "lon": -71.1238806}, {"type": "node", "id": 326592204, "lat": 42.3530617, "lon": -71.1230684}, {"type": "node", "id": 327072907, "lat": 42.2958633, "lon": -71.0716529}, {"type": "node", "id": 327218098, "lat": 42.2958304, "lon": -71.0720587}, {"type": "node", "id": 327269099, "lat": 42.3238587, "lon": -71.1026153}, {"type": "node", "id": 327270165, "lat": 42.252161, "lon": -71.1265118}, {"type": "node", "id": 327280033, "lat": 42.3238551, "lon": -71.1028298}, {"type": "node", "id": 327280698, "lat": 42.3242993, "lon": -71.1035102}, {"type": "node", "id": 327280727, "lat": 42.2518184, "lon": -71.1266816}, {"type": "node", "id": 327286185, "lat": 42.2521783, "lon": -71.126577}, {"type": "node", "id": 327287845, "lat": 42.3237948, "lon": -71.1034535}, {"type": "node", "id": 327335793, "lat": 42.3604693, "lon": -71.1374175}, {"type": "node", "id": 327355239, "lat": 42.3611335, "lon": -71.1370688}, {"type": "node", "id": 327439562, "lat": 42.3180039, "lon": -71.0511205}, {"type": "node", "id": 327439564, "lat": 42.3184319, "lon": -71.0513718}, {"type": "node", "id": 327439566, "lat": 42.3187903, "lon": -71.0502637}, {"type": "node", "id": 327439569, "lat": 42.3183655, "lon": -71.0500144}, {"type": "node", "id": 327439572, "lat": 42.3181924, "lon": -71.05055}, {"type": "node", "id": 327439576, "lat": 42.318137, "lon": -71.0505175}, {"type": "node", "id": 327439579, "lat": 42.3180598, "lon": -71.050756}, {"type": "node", "id": 327439582, "lat": 42.3181119, "lon": -71.0507866}, {"type": "node", "id": 327506465, "lat": 42.3611798, "lon": -71.1370483}, {"type": "node", "id": 327513894, "lat": 42.3605624, "lon": -71.1372209}, {"type": "node", "id": 327521449, "lat": 42.3610162, "lon": -71.137019}, {"type": "node", "id": 327547597, "lat": 42.3613823, "lon": -71.1378758}, {"type": "node", "id": 327585779, "lat": 42.2721045, "lon": -71.0692569}, {"type": "node", "id": 327587329, "lat": 42.3396523, "lon": -71.0519031}, {"type": "node", "id": 327604560, "lat": 42.2720577, "lon": -71.0694074}, {"type": "node", "id": 327636742, "lat": 42.2718364, "lon": -71.0691044}, {"type": "node", "id": 327983049, "lat": 42.2606568, "lon": -71.1571853}, {"type": "node", "id": 327983053, "lat": 42.260824, "lon": -71.1572231}, {"type": "node", "id": 327983055, "lat": 42.2608511, "lon": -71.1570048}, {"type": "node", "id": 327983058, "lat": 42.2606838, "lon": -71.156967}, {"type": "node", "id": 328086994, "lat": 42.2855629, "lon": -71.109421}, {"type": "node", "id": 328097047, "lat": 42.2857424, "lon": -71.109398}, {"type": "node", "id": 328103316, "lat": 42.2856792, "lon": -71.1093734}, {"type": "node", "id": 328114909, "lat": 42.285724, "lon": -71.1094838}, {"type": "node", "id": 328123678, "lat": 42.2855024, "lon": -71.1097028}, {"type": "node", "id": 328133559, "lat": 42.2856941, "lon": -71.1097774}, {"type": "node", "id": 328138834, "lat": 42.2856609, "lon": -71.1094592}, {"type": "node", "id": 328179530, "lat": 42.2858236, "lon": -71.1095225}, {"type": "node", "id": 328287086, "lat": 42.3089132, "lon": -71.0808916}, {"type": "node", "id": 328331849, "lat": 42.3090329, "lon": -71.0815497}, {"type": "node", "id": 328390418, "lat": 42.3092175, "lon": -71.0804763}, {"type": "node", "id": 328401937, "lat": 42.3095453, "lon": -71.0810375}, {"type": "node", "id": 328421139, "lat": 42.3088755, "lon": -71.0808238}, {"type": "node", "id": 328448050, "lat": 42.308756, "lon": -71.0810514}, {"type": "node", "id": 328602077, "lat": 42.3607546, "lon": -71.1381336}, {"type": "node", "id": 328622178, "lat": 42.3604478, "lon": -71.1373296}, {"type": "node", "id": 328633102, "lat": 42.3605752, "lon": -71.1372729}, {"type": "node", "id": 328633278, "lat": 42.3605685, "lon": -71.1373734}, {"type": "node", "id": 328691964, "lat": 42.3400063, "lon": -71.0518361}, {"type": "node", "id": 328696254, "lat": 42.3397803, "lon": -71.0521107}, {"type": "node", "id": 328697905, "lat": 42.2715482, "lon": -71.07003}, {"type": "node", "id": 328717709, "lat": 42.2720202, "lon": -71.0702985}, {"type": "node", "id": 328733615, "lat": 42.3398842, "lon": -71.0516381}, {"type": "node", "id": 328733808, "lat": 42.3398376, "lon": -71.0516913}, {"type": "node", "id": 328986775, "lat": 42.2783711, "lon": -71.1637903}, {"type": "node", "id": 328986777, "lat": 42.2788291, "lon": -71.163975}, {"type": "node", "id": 328986779, "lat": 42.2789717, "lon": -71.163334}, {"type": "node", "id": 328986781, "lat": 42.2789396, "lon": -71.163321}, {"type": "node", "id": 328986783, "lat": 42.2791068, "lon": -71.1625687}, {"type": "node", "id": 328986785, "lat": 42.2790462, "lon": -71.1625443}, {"type": "node", "id": 328986787, "lat": 42.2789966, "lon": -71.1627677}, {"type": "node", "id": 328986789, "lat": 42.2786705, "lon": -71.1626363}, {"type": "node", "id": 328986791, "lat": 42.2786457, "lon": -71.1627483}, {"type": "node", "id": 328986793, "lat": 42.27862, "lon": -71.162738}, {"type": "node", "id": 328986795, "lat": 42.2785754, "lon": -71.1629388}, {"type": "node", "id": 328986797, "lat": 42.278557, "lon": -71.1629314}, {"type": "node", "id": 328986799, "lat": 42.2785395, "lon": -71.1630099}, {"type": "node", "id": 328986801, "lat": 42.2785308, "lon": -71.1630063}, {"type": "node", "id": 328986803, "lat": 42.2785081, "lon": -71.1631084}, {"type": "node", "id": 328986805, "lat": 42.278513, "lon": -71.1631104}, {"type": "node", "id": 328986807, "lat": 42.2784366, "lon": -71.1634538}, {"type": "node", "id": 328986809, "lat": 42.2784277, "lon": -71.1634502}, {"type": "node", "id": 328986811, "lat": 42.2784051, "lon": -71.1635517}, {"type": "node", "id": 328986813, "lat": 42.2784438, "lon": -71.1635674}, {"type": "node", "id": 328986815, "lat": 42.2784361, "lon": -71.1636009}, {"type": "node", "id": 328986817, "lat": 42.2784226, "lon": -71.1636614}, {"type": "node", "id": 328986819, "lat": 42.2784017, "lon": -71.1636529}, {"type": "node", "id": 329044269, "lat": 42.2722151, "lon": -71.0696725}, {"type": "node", "id": 329077035, "lat": 42.3434693, "lon": -71.1009798}, {"type": "node", "id": 329088409, "lat": 42.3435637, "lon": -71.1010253}, {"type": "node", "id": 329104072, "lat": 42.343476, "lon": -71.1009542}, {"type": "node", "id": 329113240, "lat": 42.343272, "lon": -71.1008562}, {"type": "node", "id": 329237299, "lat": 42.3238369, "lon": -71.1034963}, {"type": "node", "id": 329237802, "lat": 42.2521383, "lon": -71.1262175}, {"type": "node", "id": 329247111, "lat": 42.2521943, "lon": -71.1264959}, {"type": "node", "id": 329249305, "lat": 42.324414, "lon": -71.1030312}, {"type": "node", "id": 329257869, "lat": 42.2519063, "lon": -71.1267082}, {"type": "node", "id": 329260872, "lat": 42.3243048, "lon": -71.1031811}, {"type": "node", "id": 329270649, "lat": 42.3238375, "lon": -71.1034548}, {"type": "node", "id": 329271006, "lat": 42.2521573, "lon": -71.1262889}, {"type": "node", "id": 329273653, "lat": 42.3243438, "lon": -71.1030291}, {"type": "node", "id": 329274030, "lat": 42.2515076, "lon": -71.1260943}, {"type": "node", "id": 329274257, "lat": 42.2514581, "lon": -71.1256564}, {"type": "node", "id": 329284775, "lat": 42.2515848, "lon": -71.1260571}, {"type": "node", "id": 329284926, "lat": 42.2519542, "lon": -71.1255256}, {"type": "node", "id": 329287881, "lat": 42.3238948, "lon": -71.1026502}, {"type": "node", "id": 329297640, "lat": 42.3244156, "lon": -71.1029369}, {"type": "node", "id": 329306284, "lat": 42.2521412, "lon": -71.1262966}, {"type": "node", "id": 329306594, "lat": 42.2515998, "lon": -71.1261139}, {"type": "node", "id": 329309358, "lat": 42.3243412, "lon": -71.1031822}, {"type": "node", "id": 329309753, "lat": 42.2515842, "lon": -71.1261214}, {"type": "node", "id": 329309953, "lat": 42.2519139, "lon": -71.1254367}, {"type": "node", "id": 329324705, "lat": 42.2755161, "lon": -71.1146498}, {"type": "node", "id": 329326333, "lat": 42.3243909, "lon": -71.1026652}, {"type": "node", "id": 329326836, "lat": 42.2516316, "lon": -71.1262997}, {"type": "node", "id": 329337767, "lat": 42.2514745, "lon": -71.1257175}, {"type": "node", "id": 329338024, "lat": 42.251596, "lon": -71.1263169}, {"type": "node", "id": 329339972, "lat": 42.3238051, "lon": -71.1028283}, {"type": "node", "id": 329346703, "lat": 42.2519394, "lon": -71.1255327}, {"type": "node", "id": 329346736, "lat": 42.2516103, "lon": -71.1263709}, {"type": "node", "id": 329347638, "lat": 42.3238953, "lon": -71.1026164}, {"type": "node", "id": 329355944, "lat": 42.3243864, "lon": -71.1029361}, {"type": "node", "id": 329356302, "lat": 42.2517213, "lon": -71.1263172}, {"type": "node", "id": 329720578, "lat": 42.3436884, "lon": -71.0999839}, {"type": "node", "id": 329754979, "lat": 42.3533131, "lon": -71.1250314}, {"type": "node", "id": 329760801, "lat": 42.3533578, "lon": -71.1253958}, {"type": "node", "id": 329786577, "lat": 42.3437867, "lon": -71.1001215}, {"type": "node", "id": 329790176, "lat": 42.3435221, "lon": -71.0999039}, {"type": "node", "id": 329795729, "lat": 42.3435942, "lon": -71.1009093}, {"type": "node", "id": 329799506, "lat": 42.3436673, "lon": -71.1000641}, {"type": "node", "id": 329841853, "lat": 42.3763785, "lon": -71.0343709}, {"type": "node", "id": 329841856, "lat": 42.3765263, "lon": -71.0343416}, {"type": "node", "id": 329841857, "lat": 42.376447, "lon": -71.0342894}, {"type": "node", "id": 471727051, "lat": 42.3428008, "lon": -71.1406115, "tags": {"addr:city": "Brighton", "addr:housenumber": "15", "addr:postcode": "02135", "addr:state": "MA", "addr:street": "Washington Street", "branch": "Brighton", "brand": "Whole Foods Market", "brand:wikidata": "Q1809448", "check_date": "2025-10-28", "check_date:opening_hours": "2025-10-28", "name": "Whole Foods Market", "opening_hours": "Mo-Su 08:00-22:00", "phone": "+1-617-738-8187", "shop": "supermarket", "website": "https://www.wholefoodsmarket.com/stores/brighton"}}, {"type": "node", "id": 1326984417, "lat": 42.3474434, "lon": -71.0796721, "tags": {"addr:city": "Boston", "addr:country": "US", "addr:housenumber": "53", "addr:postcode": "02116", "addr:state": "MA", "addr:street": "Huntington Avenue", "air_conditioning": "yes", "brand": "Star Market", "brand:wikidata": "Q7600795", "check_date": "2024-10-27", "check_date:opening_hours": "2024-10-27", "currency:USD": "yes", "internet_access": "wlan", "internet_access:fee": "no", "internet_access:ssid": "STAR_FREE_WIFI", "name": "Star Market", "opening_hours": "Mo-Su 07:00-23:00", "operator": "Albertsons Companies, Inc.", "organic": "yes", "outdoor_seating": "yes", "payment:cash": "yes", "payment:credit_cards": "yes", "payment:debit_cards": "yes", "phone": "+1 617-262-4688", "shop": "supermarket", "stroller": "yes", "takeaway": "yes", "website": "https://local.starmarket.com/ma/boston/53-huntington-ave.html", "wheelchair": "yes"}}, {"type": "node", "id": 1356795823, "lat": 42.3484447, "lon": -71.0841008, "tags": {"addr:city": "Boston", "addr:housenumber": "899", "addr:postcode": "02115", "addr:state": "MA", "addr:street": "Boylston Street", "air_conditioning": "yes", "branch": "Boston - Back Bay", "brand": "Trader Joe's", "brand:wikidata": "Q688825", "level": "-1", "name": "Trader Joe's", "opening_hours": "Mo-Su 10:00-21:00", "phone": "+1 617-262-6505", "ref": "510", "shop": "supermarket", "toilets:wheelchair": "no", "website": "https://locations.traderjoes.com/ma/boston/510/", "wheelchair": "yes"}}, {"type": "node", "id": 1456708161, "lat": 42.3435813, "lon": -71.100903}, {"type": "node", "id": 1499513981, "lat": 42.2616651, "lon": -71.1078068}, {"type": "node", "id": 1499513982, "lat": 42.2616957, "lon": -71.1076976}, {"type": "node", "id": 1499513983, "lat": 42.2617138, "lon": -71.1077151}, {"type": "node", "id": 1499513986, "lat": 42.2619678, "lon": -71.1071849}, {"type": "node", "id": 1499513989, "lat": 42.2620061, "lon": -71.1081372}, {"type": "node", "id": 1499513991, "lat": 42.2620396, "lon": -71.1072545}, {"type": "node", "id": 1499513992, "lat": 42.2621232, "lon": -71.1070969}, {"type": "node", "id": 1499513996, "lat": 42.2624104, "lon": -71.1073752}, {"type": "node", "id": 1978494795, "lat": 42.3522328, "lon": -71.1156835, "tags": {"designation": "Food and Study spot ", "name": "Buick Street Market ", "shop": "supermarket"}}, {"type": "node", "id": 2298256073, "lat": 42.3123528, "lon": -71.1139621, "tags": {"addr:city": "Jamaica Plain", "addr:housenumber": "672", "addr:postcode": "02130", "addr:state": "MA", "addr:street": "Centre Street", "contact:facebook": "https://www.facebook.com/cityfeedandsupply", "name": "City Feed and Supply", "opening_hours": "Mo-Sa 07:00-20:00; Su 08:00-20:00", "payment:discover_card": "yes", "payment:mastercard": "yes", "payment:visa": "yes", "phone": "+1-617-524-5539", "shop": "supermarket", "website": "https://cityfeedandsupply.com/centre-street-store/", "wheelchair": "yes"}}, {"type": "node", "id": 2458221142, "lat": 42.3403456, "lon": -71.0906607, "tags": {"addr:city": "Boston", "addr:housenumber": "369", "addr:postcode": "02115", "addr:state": "MA", "addr:street": "Huntington Avenue", "name": "Wollaston's Market", "opening_hours": "Mo-Su 07:00-01:00", "phone": "+16172470011", "shop": "supermarket", "short_name": "Wally's"}}, {"type": "node", "id": 2458221145, "lat": 42.3373523, "lon": -71.0921514, "tags": {"name": "Wollaston's Market", "opening_hours": "Mo-Su 07:00-24:00", "shop": "supermarket", "wheelchair": "yes"}}, {"type": "node", "id": 2700809532, "lat": 42.3620025, "lon": -71.0653418, "tags": {"addr:city": "Boston", "addr:housenumber": "181", "addr:postcode": "02114", "addr:state": "MA", "addr:street": "Cambridge Street", "branch": "Charles River Plaza", "brand": "Whole Foods Market", "brand:wikidata": "Q1809448", "check_date": "2024-10-03", "check_date:opening_hours": "2024-10-03", "name": "Whole Foods Market", "opening_hours": "Mo-Su 07:00-22:00", "phone": "+1 617-723-0004", "ref": "charlesriver", "shop": "supermarket", "website": "https://www.wholefoodsmarket.com/stores/charlesriver"}}, {"type": "node", "id": 3321751720, "lat": 42.3354785, "lon": -71.036595, "tags": {"addr:city": "South Boston", "addr:housenumber": "715", "addr:postcode": "02127", "addr:state": "MA", "addr:street": "East Broadway", "brand": "Stop & Shop", "brand:wikidata": "Q3658429", "check_date": "2024-10-03", "check_date:opening_hours": "2024-10-03", "name": "Stop & Shop", "opening_hours": "Mo-Sa 07:00-22:00; Su 07:00-21:00", "phone": "+1 617-269-7989", "ref": "0053", "shop": "supermarket", "website": "https://stores.stopandshop.com/ma/south-boston/713-east-broadway"}}, {"type": "node", "id": 3618404530, "lat": 42.3611671, "lon": -71.1370539}, {"type": "node", "id": 3665257626, "lat": 42.3512504, "lon": -71.0627836, "tags": {"addr:housenumber": "692", "addr:postcode": "02111", "addr:street": "Washington Street", "name": "Jia Ho Supermarket", "opening_hours": "Mo-Su 08:00-20:00", "phone": "+1 617 338 9788", "shop": "supermarket"}}, {"type": "node", "id": 3900847074, "lat": 42.3523825, "lon": -71.1403616, "tags": {"addr:housenumber": "562", "addr:postcode": "02134", "addr:street": "Cambridge Street", "name": "Cheema's Super Market", "note": "Sign says: \"Pak, Ind. & Middle East groceries & fresh halal meat\"", "opening_hours": "Mo-Su 11:00-20:00", "phone": "+1-617-783-9800", "shop": "supermarket"}}, {"type": "node", "id": 3901937554, "lat": 42.3531517, "lon": -71.1379485, "tags": {"addr:housenumber": "506", "addr:street": "Cambridge Street", "cuisine": "latin_american", "name": "Mayfair Food", "note": "The sign says \"Mayfair Food\" but the business is called \"Mayfair Foods\" according to government documents and their receipts.", "shop": "grocery"}}, {"type": "node", "id": 3938334840, "lat": 42.375626, "lon": -71.0662711, "tags": {"addr:city": "Charlestown", "addr:housenumber": "27", "addr:postcode": "02129", "addr:state": "MA", "addr:street": "Austin Street", "branch": "Charlestown", "brand": "Whole Foods Market", "brand:wikidata": "Q1809448", "check_date": "2024-10-03", "check_date:opening_hours": "2024-10-03", "name": "Whole Foods Market", "opening_hours": "Mo-Su 08:00-21:00", "phone": "+1 617-337-9700", "ref": "charlestown", "shop": "supermarket", "website": "https://www.wholefoodsmarket.com/stores/charlestown"}}, {"type": "node", "id": 3965479473, "lat": 42.3454666, "lon": -71.0628246, "tags": {"addr:city": "Boston", "addr:housenumber": "348", "addr:postcode": "02118", "addr:state": "MA", "addr:street": "Harrison Avenue", "air_conditioning": "yes", "branch": "South End", "brand": "Whole Foods Market", "brand:wikidata": "Q1809448", "check_date": "2024-10-03", "check_date:opening_hours": "2024-10-03", "currency:USD": "yes", "level": "0", "name": "Whole Foods Market", "opening_hours": "Mo-Su 07:00-22:00", "operator": "Amazon", "organic": "yes", "phone": "+1 617-904-1000", "ref": "southend", "shop": "supermarket", "stroller": "yes", "website": "https://www.wholefoodsmarket.com/stores/southend", "wheelchair": "yes"}}, {"type": "node", "id": 4045929124, "lat": 42.300495, "lon": -71.1129119, "tags": {"addr:city": "Jamaica Plain", "addr:housenumber": "3702", "addr:postcode": "02130", "addr:state": "MA", "addr:street": "Washington Street", "name": "The Centre Food Hub", "opening_hours": "Tu-Sa 10:00-18:00", "operator": "Fair Foods", "phone": "+1 617 288-6185", "shop": "grocery"}}, {"type": "node", "id": 4089354424, "lat": 42.2752993, "lon": -71.114144}, {"type": "node", "id": 4089354426, "lat": 42.2753468, "lon": -71.1142546}, {"type": "node", "id": 4089354427, "lat": 42.275431, "lon": -71.1139265}, {"type": "node", "id": 4089354428, "lat": 42.2754685, "lon": -71.1140195}, {"type": "node", "id": 4089354429, "lat": 42.275556, "lon": -71.1138346}, {"type": "node", "id": 4089354430, "lat": 42.2755697, "lon": -71.114623}, {"type": "node", "id": 4089354431, "lat": 42.2755934, "lon": -71.1139277}, {"type": "node", "id": 4089354432, "lat": 42.2756352, "lon": -71.1145747}, {"type": "node", "id": 4089354433, "lat": 42.275655, "lon": -71.1146204}, {"type": "node", "id": 4089354434, "lat": 42.2758191, "lon": -71.1137617}, {"type": "node", "id": 4089354435, "lat": 42.2760524, "lon": -71.1143214}, {"type": "node", "id": 4100663327, "lat": 42.3526953, "lon": -71.1251702}, {"type": "node", "id": 4100663328, "lat": 42.35274, "lon": -71.1255345}, {"type": "node", "id": 4123617193, "lat": 42.352908, "lon": -71.160164, "tags": {"addr:housenumber": "243", "addr:street": "Faneuil Street", "name": "Faneuil Street Market", "shop": "supermarket"}}, {"type": "node", "id": 4396174691, "lat": 42.3441831, "lon": -71.0655817, "tags": {"addr:city": "Boston", "addr:housenumber": "1102", "addr:postcode": "02118", "addr:state": "MA", "addr:street": "Washington Street", "alt_name": "New York Marts", "level": "0", "name": "Ming's Supermarket", "name:en": "Ming's Supermarket", "opening_hours": "Mo-Sa 08:00-20:00", "operator": "New York Mart Group Inc.", "phone": "+1-617-338-1588", "shop": "supermarket", "stroller": "yes", "website": "https://www.newyorkmart.com/en/stores/boston1-store/", "wheelchair": "yes"}}, {"type": "node", "id": 4396181789, "lat": 42.3462438, "lon": -71.0649971, "tags": {"name": "C-Mart", "name:en": "C-Mart", "shop": "supermarket"}}, {"type": "node", "id": 4467144190, "lat": 42.359706, "lon": -71.0550683, "tags": {"addr:housenumber": "4", "addr:place": "South Market", "addr:postcode": "02109", "addr:street": "South Market Street", "addr:unit": "S-1155", "name": "Pepper Palace", "name:fr": "Pepper Palace", "phone": "+1-865-234-1121", "shop": "supermarket", "website": "https://pepperpalace.com/pages/boston-ma"}}, {"type": "node", "id": 4632975884, "lat": 42.3531282, "lon": -71.1254473}, {"type": "node", "id": 4983448186, "lat": 42.3333732, "lon": -71.1041121, "tags": {"addr:city": "Boston", "addr:housenumber": "1620", "addr:postcode": "02120", "addr:state": "MA", "addr:street": "Tremont Street", "brand": "Stop & Shop", "brand:wikidata": "Q3658429", "check_date": "2024-10-03", "check_date:opening_hours": "2024-10-03", "name": "Stop & Shop", "opening_hours": "Mo-Su 07:00-22:00", "phone": "+1 617-232-3572", "ref": "0412", "shop": "supermarket", "website": "https://stores.stopandshop.com/ma/boston/1620-tremont-street"}}, {"type": "node", "id": 4996428424, "lat": 42.3329146, "lon": -71.0822884}, {"type": "node", "id": 4996428425, "lat": 42.3332728, "lon": -71.0819171}, {"type": "node", "id": 4996428426, "lat": 42.3335951, "lon": -71.0824892}, {"type": "node", "id": 4996428427, "lat": 42.3331765, "lon": -71.0827235}, {"type": "node", "id": 5197251845, "lat": 42.3438923, "lon": -71.0872674, "tags": {"addr:city": "Boston", "addr:housenumber": "15", "addr:postcode": "02115", "addr:state": "MA", "addr:street": "Westland Avenue", "branch": "Symphony", "brand": "Whole Foods Market", "brand:wikidata": "Q1809448", "check_date": "2024-10-03", "check_date:opening_hours": "2024-10-03", "level": "0", "name": "Whole Foods Market", "opening_hours": "Mo-Su 08:00-22:00", "phone": "+1 617-375-1010", "ref": "symphony", "shop": "supermarket", "website": "https://www.wholefoodsmarket.com/stores/symphony"}}, {"type": "node", "id": 5429674015, "lat": 42.3634369, "lon": -71.130034, "tags": {"addr:city": "Allston", "addr:housenumber": "199", "addr:postcode": "02134", "addr:state": "MA", "addr:street": "North Harvard Street", "branch": "Allston", "brand": "Trader Joe's", "brand:wikidata": "Q688825", "name": "Trader Joe's", "opening_hours": "Mo-Su 09:00-21:00", "phone": "+1 617-787-1238", "ref": "561", "shop": "supermarket", "website": "https://locations.traderjoes.com/ma/allston/561/"}}, {"type": "node", "id": 6118888236, "lat": 42.2420402, "lon": -71.1270857}, {"type": "node", "id": 6185104847, "lat": 42.3657266, "lon": -71.0616706, "tags": {"addr:city": "Boston", "addr:country": "US", "addr:housenumber": "90", "addr:postcode": "02114", "addr:state": "MA", "addr:street": "Causeway Street", "brand": "Star Market", "brand:wikidata": "Q7600795", "building:levels:underground": "1", "layer": "0", "level": "0;-1", "name": "Star Market", "opening_hours": "Mo-Su 06:00-23:00", "organic": "yes", "payment:cash": "yes", "payment:credit_cards": "yes", "phone": "+1-857-409-3403", "shop": "supermarket", "stroller": "yes", "website": "https://local.starmarket.com/ma/boston/90-causeway-st.html", "wheelchair": "yes"}}, {"type": "node", "id": 6211427500, "lat": 42.2425742, "lon": -71.1270309}, {"type": "node", "id": 6211427501, "lat": 42.2419599, "lon": -71.1275429}, {"type": "node", "id": 6211427502, "lat": 42.2419572, "lon": -71.1276173}, {"type": "node", "id": 6211427505, "lat": 42.2423952, "lon": -71.1278059}, {"type": "node", "id": 6211427506, "lat": 42.2422625, "lon": -71.1276377}, {"type": "node", "id": 6211427507, "lat": 42.2422567, "lon": -71.1277966}, {"type": "node", "id": 6211427508, "lat": 42.242401, "lon": -71.127647}, {"type": "node", "id": 6211427509, "lat": 42.2419769, "lon": -71.1270815}, {"type": "node", "id": 6211427511, "lat": 42.2425512, "lon": -71.1276571}, {"type": "node", "id": 6211427513, "lat": 42.2420436, "lon": -71.1269953}, {"type": "node", "id": 7626669836, "lat": 42.2930806, "lon": -71.0493739}, {"type": "node", "id": 7626669838, "lat": 42.2922288, "lon": -71.0490932}, {"type": "node", "id": 7626669848, "lat": 42.2925042, "lon": -71.0485057}, {"type": "node", "id": 7626669857, "lat": 42.2923538, "lon": -71.0489823}, {"type": "node", "id": 7626669861, "lat": 42.2930245, "lon": -71.0495519}, {"type": "node", "id": 7626669862, "lat": 42.2922776, "lon": -71.0489384}, {"type": "node", "id": 7626669863, "lat": 42.2931561, "lon": -71.0488816}, {"type": "node", "id": 7626669868, "lat": 42.293013, "lon": -71.049335}, {"type": "node", "id": 7667742312, "lat": 42.3101964, "lon": -71.0570005}, {"type": "node", "id": 7667742323, "lat": 42.3100884, "lon": -71.0569567}, {"type": "node", "id": 7667742324, "lat": 42.3099924, "lon": -71.0577769}, {"type": "node", "id": 7667742325, "lat": 42.3100956, "lon": -71.0570211}, {"type": "node", "id": 7667742326, "lat": 42.3102765, "lon": -71.0577189}, {"type": "node", "id": 7667742327, "lat": 42.3099051, "lon": -71.0569941}, {"type": "node", "id": 7711794774, "lat": 42.3436061, "lon": -71.1008075}, {"type": "node", "id": 7711794777, "lat": 42.3436698, "lon": -71.1005678}, {"type": "node", "id": 7711828606, "lat": 42.3435046, "lon": -71.1009968, "tags": {"door": "sliding", "entrance": "main"}}, {"type": "node", "id": 7795008738, "lat": 42.333264, "lon": -71.0826285}, {"type": "node", "id": 7795008781, "lat": 42.3333386, "lon": -71.0827277}, {"type": "node", "id": 7830837817, "lat": 42.3565533, "lon": -71.0694213, "tags": {"access": "yes", "addr:city": "Boston", "addr:housenumber": "20", "addr:postcode": "02114", "addr:state": "MA", "addr:street": "Charles Street", "air_conditioning": "yes", "contact:facebook": "https://www.facebook.com/delucasmarket/", "level": "0", "location": "indoor", "name": "DeLuca's Market", "opening_hours": "Mo-Su 09:00-19:00", "organic": "yes", "outdoor_seating": "yes", "payment:cash": "yes", "phone": "+1-617-523-4343", "shop": "supermarket", "stroller": "yes", "takeaway": "yes", "wheelchair": "yes"}}, {"type": "node", "id": 7899252173, "lat": 42.2716019, "lon": -71.0700605}, {"type": "node", "id": 7899285125, "lat": 42.2721581, "lon": -71.0696401}, {"type": "node", "id": 7899285126, "lat": 42.2720832, "lon": -71.0695091}, {"type": "node", "id": 7899285127, "lat": 42.2721815, "lon": -71.069565}, {"type": "node", "id": 7899285128, "lat": 42.2721063, "lon": -71.0694351}, {"type": "node", "id": 8773882150, "lat": 42.37649, "lon": -71.0344431}, {"type": "node", "id": 8773882151, "lat": 42.3764169, "lon": -71.034395}, {"type": "node", "id": 8911759516, "lat": 42.3763428, "lon": -71.0403935}, {"type": "node", "id": 9140821842, "lat": 42.3216662, "lon": -71.1109768, "tags": {"artist_name": "Rafael Rivera Garcia", "artwork_type": "mural", "name": "Taino Mural", "tourism": "artwork"}}, {"type": "node", "id": 9239039887, "lat": 42.251415, "lon": -71.1257461}, {"type": "node", "id": 9280587281, "lat": 42.3763413, "lon": -71.0408171}, {"type": "node", "id": 9301471862, "lat": 42.2863786, "lon": -71.152022, "tags": {"addr:city": "West Roxbury", "addr:housenumber": "1800", "addr:postcode": "02132", "addr:state": "MA", "addr:street": "Centre Street", "brand": "Roche Bros.", "brand:wikidata": "Q7353834", "name": "Roche Bros.", "opening_hours": "Mo-Sa 07:00-21:00; Su 08:00-20:00", "phone": "+1 617 469 5747", "ref": "115", "shop": "supermarket"}}, {"type": "node", "id": 9301761639, "lat": 42.3554512, "lon": -71.0600046, "tags": {"addr:city": "Boston", "addr:housenumber": "8", "addr:postcode": "02110", "addr:state": "MA", "addr:street": "Summer Street", "brand": "Roche Bros.", "brand:wikidata": "Q7353834", "name": "Roche Bros.", "opening_hours": "Mo-Sa 07:00-21:00; Su 08:00-20:00", "phone": "+1 617 456 5111", "ref": "121", "shop": "supermarket"}}, {"type": "node", "id": 9321166474, "lat": 42.3769629, "lon": -71.0336372, "tags": {"addr:city": "East Boston", "addr:housenumber": "150", "addr:postcode": "02128", "addr:state": "MA", "addr:street": "Bennington Street", "name": "Sava's Market", "shop": "supermarket", "source": "esri/Boston_MA_Addresses"}}, {"type": "node", "id": 9362012254, "lat": 42.3612874, "lon": -71.137488}, {"type": "node", "id": 9362012255, "lat": 42.3613615, "lon": -71.137791}, {"type": "node", "id": 9998815493, "lat": 42.2926221, "lon": -71.0485737, "tags": {"entrance": "main"}}, {"type": "node", "id": 9998815494, "lat": 42.2929745, "lon": -71.0487769, "tags": {"entrance": "yes"}}, {"type": "node", "id": 10019166332, "lat": 42.2930723, "lon": -71.0493691, "tags": {"amenity": "loading_dock"}}, {"type": "node", "id": 10019166333, "lat": 42.2930429, "lon": -71.0493522, "tags": {"amenity": "loading_dock"}}, {"type": "node", "id": 10019166334, "lat": 42.292299, "lon": -71.0489507, "tags": {"amenity": "loading_dock"}}, {"type": "node", "id": 10019166335, "lat": 42.2923334, "lon": -71.0489705, "tags": {"amenity": "loading_dock"}}, {"type": "node", "id": 10839024984, "lat": 42.3625673, "lon": -71.0518833, "tags": {"addr:city": "Boston", "addr:housenumber": "179", "addr:postcode": "02109", "addr:state": "MA", "addr:street": "Commercial Street", "name": "Golden Goose Market", "operator": "Golden Goose Market", "phone": "+1-617-367-3134", "shop": "supermarket", "website": "https://www.goldengoosemarket.com/"}}, {"type": "node", "id": 10963607996, "lat": 42.3763736, "lon": -71.0399256}, {"type": "node", "id": 10963608000, "lat": 42.3763366, "lon": -71.0406103}, {"type": "node", "id": 11166040805, "lat": 42.3311489, "lon": -71.083191, "tags": {"addr:postcode": "02119", "name": "Daily Table", "opening_hours": "Mo-Sa 09:00-20:00; Su 11:00-19:00", "shop": "supermarket", "website": "https://www.dailytable.org/"}}, {"type": "node", "id": 11465907739, "lat": 42.3436545, "lon": -71.1006252, "tags": {"entrance": "yes"}}, {"type": "node", "id": 11872823966, "lat": 42.3520194, "lon": -71.047377}, {"type": "node", "id": 11956591210, "lat": 42.3558002, "lon": -71.1400571, "tags": {"addr:city": "Boston", "addr:housenumber": "305", "addr:postcode": "02135", "addr:state": "MA", "addr:street": "Guest Street", "brand": "Stop & Shop", "brand:wikidata": "Q3658429", "check_date:opening_hours": "2024-10-03", "name": "Stop & Shop", "opening_hours": "Mo-Sa 07:00-22:00; Su 07:00-21:00", "phone": "+1 617-779-9116", "shop": "supermarket", "website": "https://stores.stopandshop.com/ma/allston/305-guest-street"}}, {"type": "node", "id": 11999406405, "lat": 42.3048724, "lon": -71.0686415}, {"type": "node", "id": 11999406406, "lat": 42.304954, "lon": -71.0684753}, {"type": "node", "id": 11999406407, "lat": 42.3046849, "lon": -71.0681193}, {"type": "node", "id": 11999406408, "lat": 42.3044382, "lon": -71.0684786}, {"type": "node", "id": 11999406409, "lat": 42.3044936, "lon": -71.0685506}, {"type": "node", "id": 11999406410, "lat": 42.3045237, "lon": -71.0685114}, {"type": "node", "id": 11999406411, "lat": 42.3045659, "lon": -71.0685756}, {"type": "node", "id": 11999406412, "lat": 42.3046775, "lon": -71.0684285}, {"type": "node", "id": 12069985166, "lat": 42.2861788, "lon": -71.1295848, "tags": {"addr:city": "Roslindale", "addr:housenumber": "30", "addr:postcode": "02131", "addr:state": "MA", "addr:street": "Corinth Street", "name": "Village Market", "opening_hours": "Mo-Su 07:00-22:00", "shop": "supermarket"}}, {"type": "node", "id": 12072443190, "lat": 42.3509954, "lon": -71.0733464, "tags": {"addr:city": "Boston", "addr:housenumber": "500", "addr:postcode": "02116", "addr:state": "MA", "addr:street": "Boylston Street", "air_conditioning": "yes", "brand": "Trader Joe's", "brand:wikidata": "Q688825", "level": "0", "name": "Trader Joe's", "opening_hours": "Mo-Su 09:00-21:00", "phone": "+1 617-693-6302", "shop": "supermarket", "source": "survey", "toilets:wheelchair": "no", "website": "https://locations.traderjoes.com/MA/Boston/500/", "wheelchair": "yes"}}, {"type": "node", "id": 12073829466, "lat": 42.2842126, "lon": -71.1109121, "tags": {"addr:city": "Boston", "addr:housenumber": "650", "addr:postcode": "02131", "addr:state": "MA", "addr:street": "American Legion Highway", "brand": "Price Rite", "brand:wikidata": "Q7242560", "name": "Price Rite", "opening_hours": "Mo-Su 08:00-21:00", "phone": "+1-617-522-0066", "shop": "supermarket", "website": "http://priceritemarketplace.com"}}, {"type": "node", "id": 12410510818, "lat": 42.2955673, "lon": -71.0720213}, {"type": "node", "id": 12410510819, "lat": 42.2956766, "lon": -71.0716226}, {"type": "node", "id": 12942440968, "lat": 42.3509097, "lon": -71.1087168, "tags": {"name": "City Market", "shop": "grocery"}}, {"type": "node", "id": 12987715413, "lat": 42.3117751, "lon": -71.0537604, "tags": {"addr:housenumber": "102-110", "addr:street": "Savin Hill Avenue", "air_conditioning": "yes", "check_date": "2025-09-13", "name": "The Daily", "payment:cash": "yes", "payment:credit_cards": "yes", "payment:debit_cards": "yes", "shop": "supermarket", "wheelchair": "yes"}}, {"type": "node", "id": 13207967874, "lat": 42.3092576, "lon": -71.0805485}, {"type": "node", "id": 13207967875, "lat": 42.3092677, "lon": -71.0805382}, {"type": "node", "id": 13207967876, "lat": 42.3094341, "lon": -71.0811505}, {"type": "node", "id": 13207967877, "lat": 42.3094505, "lon": -71.0811801}, {"type": "node", "id": 13207967878, "lat": 42.3091683, "lon": -71.0814668}, {"type": "node", "id": 13207967879, "lat": 42.3091488, "lon": -71.0814319}, {"type": "node", "id": 13323953077, "lat": 42.3411293, "lon": -71.0707855, "tags": {"addr:housenumber": "1421", "addr:street": "Washington Street", "name": "Foodie's Urban Market", "opening_hours": "Mo-Sa 08:00-20:00; Su 08:00-19:00", "shop": "supermarket", "website": "https://foodiesmarkets.com"}}, {"type": "way", "id": 29634260, "nodes": [326223296, 326198824, 9140821842, 326230926, 326157884, 326153053, 326219339, 326171063, 326185216, 326223296], "tags": {"addr:city": "Boston", "addr:housenumber": "413", "addr:postcode": "02130", "addr:state": "MA", "addr:street": "Centre Street", "branch": "Jamaica Plain", "brand": "Whole Foods Market", "brand:wikidata": "Q1809448", "building": "yes", "check_date": "2024-10-03", "check_date:opening_hours": "2024-10-03", "name": "Whole Foods Market", "opening_hours": "Mo-Su 08:00-22:00", "operator": "Whole Foods", "phone": "+1 617-553-5400", "ref": "jamaicaplain", "shop": "supermarket", "website": "https://www.wholefoodsmarket.com/stores/jamaicaplain", "wheelchair": "limited"}}, {"type": "way", "id": 29660101, "nodes": [326392243, 11872823966, 326392245, 326392246, 326392247, 326392243], "tags": {"addr:city": "Boston", "addr:housenumber": "44", "addr:postcode": "02210", "addr:state": "MA", "addr:street": "Thomson Place", "branch": "Fort Point Seaport", "brand": "Trader Joe's", "brand:wikidata": "Q688825", "building": "retail", "building:levels": "2", "check_date": "2024-08-20", "name": "Trader Joe's", "opening_hours": "Mo-Su 09:00-21:00", "payment:cash": "yes", "payment:credit_cards": "yes", "payment:debit_cards": "yes", "phone": "+1 617-941-3714", "ref": "566", "shop": "supermarket", "source": "esri/Boston_MA_Addresses", "website": "https://locations.traderjoes.com/ma/boston/566/"}}, {"type": "way", "id": 29661558, "nodes": [326406053, 9280587281, 326406054, 326406055, 326406056, 326406057, 326406058, 326406059, 326406061, 326406062, 326406063, 326406064, 10963607996, 326406065, 8911759516, 10963608000, 326406053], "tags": {"addr:city": "East Boston", "addr:housenumber": "246", "addr:postcode": "02128", "addr:state": "MA", "addr:street": "Border Street", "brand": "Shaw's", "brand:wikidata": "Q578387", "building": "yes", "name": "Shaw's", "shop": "supermarket", "source": "esri/Boston_MA_Addresses", "website": "https://local.shaws.com/ma/east-boston/246-border-st.html"}}, {"type": "way", "id": 29680682, "nodes": [326592193, 326592196, 326592198, 326592200, 326592202, 326592204, 326592193], "tags": {"addr:city": "Boston", "addr:country": "US", "addr:housenumber": "1065", "addr:postcode": "02215", "addr:state": "MA", "addr:street": "Commonwealth Avenue", "brand": "Star Market", "brand:wikidata": "Q7600795", "building": "retail", "building:levels": "1", "check_date:opening_hours": "2025-10-31", "name": "Star Market", "opening_hours": "Mo-Su 06:00-23:00", "phone": "+1 617-783-5878", "shop": "supermarket", "website": "https://local.starmarket.com/ma/boston/1065-commonwealth-ave.html"}}, {"type": "way", "id": 29722599, "nodes": [327439562, 327439564, 327439566, 327439569, 327439572, 327439576, 327439579, 327439582, 327439562], "tags": {"addr:city": "Dorchester", "addr:country": "US", "addr:housenumber": "45", "addr:postcode": "02125", "addr:state": "MA", "addr:street": "William T. Morrissey Boulevard", "brand": "Star Market", "brand:wikidata": "Q7600795", "building": "retail", "building:levels": "2", "check_date": "2025-07-09", "name": "Star Market", "opening_hours": "Mo-Su 06:00-24:00", "phone": "+1 617-265-1776", "shop": "supermarket", "website": "https://local.starmarket.com/ma/dorchester/45-morrissey-blvd.html"}}, {"type": "way", "id": 29775004, "nodes": [327983058, 327983049, 327983053, 327983055, 327983058], "tags": {"building": "yes", "name": "Greek International Food Market", "shop": "supermarket"}}, {"type": "way", "id": 29789620, "nodes": [328123678, 328133559, 328179530, 328114909, 328097047, 328103316, 328138834, 328086994, 328123678], "tags": {"addr:city": "Boston", "addr:housenumber": "606", "addr:postcode": "02131", "addr:state": "MA", "addr:street": "American Legion Highway", "building": "yes", "name": "Brother\u2019s Supermarket", "payment:apple_pay": "yes", "payment:cards": "yes", "payment:contactless": "yes", "payment:mastercard": "yes", "payment:visa": "yes", "phone": "+1-617-524-9877", "shop": "supermarket", "website": "https://www.brotherssupermarkets.com"}}, {"type": "way", "id": 29804360, "nodes": [328448050, 328331849, 13207967879, 13207967878, 13207967877, 13207967876, 328401937, 13207967875, 13207967874, 328390418, 328421139, 328287086, 328448050], "tags": {"addr:city": "Dorchester", "addr:housenumber": "460", "addr:postcode": "02121", "addr:state": "MA", "addr:street": "Blue Hill Avenue", "brand": "Stop & Shop", "brand:wikidata": "Q3658429", "building": "supermarket", "check_date": "2024-10-03", "check_date:opening_hours": "2024-10-03", "name": "Stop & Shop", "opening_hours": "Mo-Sa 07:00-22:00; Su 07:00-21:00", "phone": "+1 617-427-6752", "ref": "0459", "shop": "supermarket", "website": "https://stores.stopandshop.com/ma/dorchester/460-blue-hill-avenue"}}, {"type": "way", "id": 29827052, "nodes": [328622178, 327335793, 328633278, 328602077, 327547597, 9362012255, 9362012254, 327506465, 3618404530, 327355239, 327521449, 327513894, 328633102, 328622178], "tags": {"addr:city": "Brighton", "addr:country": "US", "addr:housenumber": "370", "addr:postcode": "02135", "addr:state": "MA", "addr:street": "Western Avenue", "brand": "Star Market", "brand:wikidata": "Q7600795", "building": "yes", "building:levels": "1", "name": "Star Market", "phone": "+1 617-787-5266", "shop": "supermarket", "website": "https://local.starmarket.com/ma/brighton/370-western-ave.html"}}, {"type": "way", "id": 29854780, "nodes": [328986775, 328986777, 328986779, 328986781, 328986783, 328986785, 328986787, 328986789, 328986791, 328986793, 328986795, 328986797, 328986799, 328986801, 328986803, 328986805, 328986807, 328986809, 328986811, 328986813, 328986815, 328986817, 328986819, 328986775], "tags": {"addr:city": "West Roxbury", "addr:country": "US", "addr:housenumber": "75", "addr:postcode": "02132", "addr:state": "MA", "addr:street": "Spring Street", "brand": "Star Market", "brand:wikidata": "Q7600795", "building": "yes", "name": "Star Market", "phone": "+1 617-327-0564", "shop": "supermarket", "website": "https://local.starmarket.com/ma/west-roxbury/75-spring-st.html"}}, {"type": "way", "id": 29868710, "nodes": [328697905, 7899252173, 328717709, 329044269, 7899285125, 7899285127, 7899285126, 7899285128, 327604560, 327585779, 327636742, 328697905], "tags": {"addr:city": "Dorchester", "addr:country": "US", "addr:housenumber": "4", "addr:postcode": "02124", "addr:state": "MA", "addr:street": "River Street", "brand": "Star Market", "brand:wikidata": "Q7600795", "building": "yes", "check_date": "2024-10-27", "check_date:opening_hours": "2024-10-27", "name": "Star Market", "opening_hours": "Mo-Su 06:00-23:00", "phone": "+1 617-298-1462", "shop": "supermarket", "website": "https://local.starmarket.com/ma/dorchester/4-river-st.html"}}, {"type": "way", "id": 29871730, "nodes": [328733615, 328733808, 327587329, 328696254, 328691964, 328733615], "tags": {"addr:housenumber": "230", "addr:street": "West Broadway", "building": "yes", "check_date": "2024-08-18", "name": "Foodie's Market", "opening_hours": "Mo-Sa 08:00-20:00; Su 08:00-19:00", "operator": "Foodie's Markets", "payment:cash": "yes", "payment:credit_cards": "yes", "payment:debit_cards": "yes", "phone": "+1 617-269-4700", "shop": "supermarket", "website": "https://www.foodiesmarkets.com"}}, {"type": "way", "id": 29887895, "nodes": [327287845, 329270649, 329237299, 327280698, 329260872, 329309358, 329273653, 329249305, 329297640, 329355944, 329326333, 329287881, 329347638, 327269099, 327280033, 329339972, 327287845], "tags": {"addr:city": "Jamaica Plain", "addr:housenumber": "301", "addr:postcode": "02130", "addr:state": "MA", "addr:street": "Centre Street", "brand": "Stop & Shop", "brand:wikidata": "Q3658429", "building": "supermarket", "check_date": "2024-10-03", "check_date:opening_hours": "2024-10-03", "name": "Stop & Shop", "opening_hours": "Mo-Sa 07:00-22:00; Su 07:00-21:00", "phone": "+1 617-522-4300", "ref": "0075", "shop": "supermarket", "website": "https://stores.stopandshop.com/ma/jamaica-plain/301-centre-street"}}, {"type": "way", "id": 29905550, "nodes": [9239039887, 329274030, 329284775, 329306594, 329309753, 329326836, 329338024, 329346736, 329356302, 327280727, 329257869, 327286185, 327270165, 329247111, 329306284, 329271006, 329237802, 329284926, 329346703, 329309953, 329274257, 329337767, 9239039887], "tags": {"addr:city": "Hyde Park", "addr:housenumber": "1377", "addr:postcode": "02136", "addr:state": "MA", "addr:street": "Hyde Park Avenue", "brand": "Shaw's", "brand:wikidata": "Q578387", "building": "retail", "check_date": "2023-08-18", "internet_access": "no", "name": "Shaw's", "payment:cash": "yes", "payment:credit_cards": "yes", "payment:debit_cards": "yes", "payment:mastercard": "yes", "payment:visa": "yes", "shop": "supermarket", "website": "https://local.shaws.com/ma/hyde-park/1377-hyde-park-ave.html", "wheelchair": "yes"}}, {"type": "way", "id": 29938170, "nodes": [329113240, 329104072, 329077035, 7711828606, 329088409, 329795729, 1456708161, 7711794774, 11465907739, 7711794777, 329786577, 329799506, 329720578, 329790176, 329113240], "tags": {"addr:city": "Boston", "addr:country": "US", "addr:housename": "Star Market", "addr:housenumber": "33", "addr:postcode": "02215", "addr:state": "MA", "addr:street": "Kilmarnock Street", "brand": "Star Market", "brand:wikidata": "Q7600795", "building": "supermarket", "building:levels": "1", "check_date": "2024-10-27", "check_date:opening_hours": "2024-10-27", "height": "8.3", "name": "Star Market", "old_name": "Shaw's Supermarket", "opening_hours": "Mo-Su 06:00-23:00", "phone": "+1 617-267-4684", "shop": "supermarket", "website": "https://local.starmarket.com/ma/boston/33-kilmarnock-st.html", "wheelchair": "yes"}}, {"type": "way", "id": 29953057, "nodes": [329841853, 8773882151, 8773882150, 329841856, 329841857, 329841853], "tags": {"addr:city": "East Boston", "addr:housenumber": "121;123", "addr:postcode": "02128", "addr:state": "MA", "addr:street": "Bennington Street", "building": "yes", "building:levels": "1", "building:material": "cement_block", "name": "El Valle de la Sultana Market", "shop": "supermarket", "source": "esri/Boston_MA_Addresses"}}, {"type": "way", "id": 136689867, "nodes": [1499513989, 1499513996, 1499513992, 1499513991, 1499513986, 1499513982, 1499513983, 1499513981, 1499513989], "tags": {"addr:housenumber": "870", "addr:street": "River Street", "brand": "Price Rite", "brand:wikidata": "Q7242560", "building": "yes", "check_date": "2023-08-19", "name": "Price Rite", "shop": "supermarket", "source": "Bing"}}, {"type": "way", "id": 245744071, "nodes": [4089354433, 4089354432, 4089354430, 329324705, 4089354426, 4089354424, 4089354428, 4089354427, 4089354429, 4089354431, 4089354434, 4089354435, 4089354433], "tags": {"addr:city": "Roslindale", "addr:housename": "Stop & Shop", "addr:housenumber": "950", "addr:postcode": "02131", "addr:state": "MA", "addr:street": "American Legion Highway", "brand": "Stop & Shop", "brand:wikidata": "Q3658429", "building": "yes", "check_date": "2024-10-03", "check_date:opening_hours": "2024-10-03", "name": "Stop & Shop", "opening_hours": "Mo-Sa 07:00-22:00; Su 07:00-21:00", "phone": "+1 617-327-2160", "ref": "0004", "shop": "supermarket", "website": "https://stores.stopandshop.com/ma/roslindale/950-american-legion-highway"}}, {"type": "way", "id": 408045321, "nodes": [4100663328, 4632975884, 329760801, 329754979, 4100663327, 4100663328], "tags": {"addr:city": "Allston", "addr:housenumber": "1", "addr:postcode": "02134", "addr:state": "MA", "addr:street": "Brighton Avenue", "alt_name": "Super 88;Super 88 Market", "building": "supermarket", "building:levels": "1", "check_date": "2025-08-02", "name": "Hong Kong Supermarket", "note": "The building says Super 88 Market on the outside but the business inside calls itself Honk Kong Supermarket. The website listed on the building (super88market.com) is defunct so I think the business name should be used.", "opening_hours": "Mo-Su 09:00-21:00", "phone": "+16177872288", "shop": "supermarket"}}, {"type": "way", "id": 510687518, "nodes": [4996428424, 4996428425, 4996428426, 7795008781, 7795008738, 4996428427, 4996428424], "tags": {"addr:housenumber": "450", "addr:street": "Melnea Cass Boulevard", "building": "yes", "name": "Tropical Foods", "shop": "supermarket"}}, {"type": "way", "id": 663625859, "nodes": [6211427501, 6211427509, 6118888236, 6211427513, 6211427500, 6211427511, 6211427508, 6211427505, 6211427507, 6211427506, 6211427502, 6211427501], "tags": {"addr:city": "Boston", "addr:housenumber": "1025", "addr:postcode": "02136", "addr:state": "MA", "addr:street": "Truman Parkway", "brand": "Stop & Shop", "brand:wikidata": "Q3658429", "building": "supermarket", "check_date": "2024-10-03", "check_date:opening_hours": "2024-10-03", "internet_access": "wlan", "internet_access:fee": "no", "name": "Stop & Shop", "opening_hours": "Mo-Sa 07:00-22:00; Su 07:00-21:00", "payment:cash": "yes", "payment:credit_cards": "yes", "payment:debit_cards": "yes", "payment:mastercard": "yes", "payment:visa": "yes", "phone": "+1 617-333-0273", "ref": "0413", "shop": "supermarket", "website": "https://stores.stopandshop.com/ma/hyde-park/1025-truman-parkway", "wheelchair": "yes"}}, {"type": "way", "id": 816585252, "nodes": [7626669861, 7626669838, 7626669862, 10019166334, 10019166335, 7626669857, 7626669848, 9998815493, 9998815494, 7626669863, 7626669868, 10019166333, 10019166332, 7626669836, 7626669861], "tags": {"addr:city": "Dorchester", "addr:housenumber": "535-555", "addr:postcode": "02122", "addr:state": "MA", "addr:street": "Freeport Street", "brand": "Stop & Shop", "brand:wikidata": "Q3658429", "building": "yes", "check_date": "2024-10-03", "check_date:opening_hours": "2024-10-03", "name": "Stop & Shop", "opening_hours": "Mo-Sa 07:00-22:00; Su 07:00-21:00", "phone": "+1 617-265-2766", "ref": "0018", "shop": "supermarket", "source": "esri/Boston_MA_Addresses", "website": "https://stores.stopandshop.com/ma/dorchester/545-freeport-street"}}, {"type": "way", "id": 821230817, "nodes": [7667742326, 7667742324, 7667742327, 7667742323, 7667742325, 7667742312, 7667742326], "tags": {"addr:city": "Dorchester", "addr:housenumber": "1188", "addr:postcode": "02125", "addr:state": "MA", "addr:street": "Dorchester Avenue", "building": "retail", "building:levels": "2", "name": "Phu Cuong", "roof:shape": "flat", "shop": "supermarket", "source": "esri/Boston_MA_Addresses"}}, {"type": "way", "id": 1294793293, "nodes": [11999406405, 11999406406, 11999406407, 11999406408, 11999406409, 11999406410, 11999406411, 11999406412, 11999406405], "tags": {"addr:city": "Dorchester", "addr:country": "US", "addr:housenumber": "195", "addr:postcode": "02122", "addr:state": "MA", "addr:street": "Bowdoin Street", "building": "yes", "check_date:opening_hours": "2024-06-21", "contact:phone": "+1 617-297-5913", "name": "Dorchester Food Co-op", "opening_hours": "Su-Sa,PH 08:00-20:00; Nov Th[4] off; Dec 25 off; Jan 01 off", "operator:type": "cooperative", "payment:cash": "yes", "payment:credit_cards": "yes", "payment:debit_cards": "yes", "payment:ebt": "yes", "payment:snap": "yes", "payment:wic": "no", "shop": "supermarket", "source:opening_hours": "https://docs.google.com/document/d/1bg-gTGGqL9HHUbwaMFJu8d6E7wJKdq8f/edit"}}, {"type": "way", "id": 1341663470, "nodes": [12410510818, 327218098, 327072907, 12410510819, 12410510818], "tags": {"addr:city": "Dorchester", "addr:housenumber": "450", "addr:postcode": "02124", "addr:state": "MA", "addr:street": "Washington Street", "building": "yes", "name": "Daily Table", "opening_hours": "Mo-Sa 09:00-20:00, Su 11:00-18:00", "phone": "+1 617-506-0219", "shop": "supermarket"}}]}